STARLINK-4103           
1 53141U 22083K   26068.57898817 -.00000363  00000+0 -47507-5 0  9995
2 53141  53.2178 174.6166 0001258 110.5244 249.5883 15.08838158201207
RAISE-4                 
1 67073U 25297B   26068.97636248  .00005682  00000+0  37087-3 0  9993
2 67073  97.4953 219.2703 0012713  22.7159 337.4629 15.08174958 12933
